{
"type": "FeatureCollection",
"name": "Line",
"crs": { "type": "name", "properties": { "name": "urn:ogc:def:crs:OGC:1.3:CRS84" } },
"features": [
{ "type": "Feature", "properties": { "id": null, "class": "line_white" }, "geometry": { "type": "MultiLineString", "coordinates": [ [ [ 15.686861654223641, 44.763590895012413 ], [ 15.686842876121766, 44.763646077946774 ], [ 15.686991368966854, 44.763671551571797 ], [ 15.687010147068728, 44.763616368664792 ] ], [ [ 15.686867911432651, 44.763562766275555 ], [ 15.686867911432653, 44.763562766275555 ], [ 15.68687104327458, 44.763563303523021 ], [ 15.687019536119671, 44.763588777189071 ], [ 15.687010147068728, 44.763616368664792 ] ], [ [ 15.686867911432653, 44.763562766275555 ], [ 15.686867932824089, 44.763562692983079 ], [ 15.686867947418412, 44.763562618854159 ], [ 15.686867955153122, 44.763562544206245 ], [ 15.686867955995105, 44.763562469358966 ], [ 15.686867949940748, 44.763562394632835 ], [ 15.686867937015979, 44.763562320347859 ], [ 15.686867917276146, 44.763562246822126 ], [ 15.686867890805772, 44.763562174370477 ], [ 15.686867857718214, 44.763562103303165 ], [ 15.686867818155157, 44.763562033924529 ], [ 15.686867772286016, 44.763561966531626 ], [ 15.686867720307202, 44.763561901413084 ], [ 15.686867662441307, 44.763561838847707 ], [ 15.68686759893612, 44.763561779103441 ], [ 15.686867530063571, 44.763561722436101 ], [ 15.686867456118591, 44.763561669088368 ], [ 15.686867377417823, 44.763561619288659 ], [ 15.686867294298272, 44.763561573250236 ], [ 15.686867207115872, 44.76356153117024 ], [ 15.686867116243954, 44.763561493228877 ], [ 15.68686702207164, 44.763561459588601 ], [ 15.686866925002192, 44.76356143039348 ], [ 15.686866825451276, 44.763561405768513 ], [ 15.686866723845187, 44.763561385819159 ], [ 15.686866620619016, 44.763561370630839 ], [ 15.686866516214792, 44.763561360268604 ], [ 15.686866411079588, 44.763561354776819 ], [ 15.686866305663619, 44.763561354179004 ], [ 15.686866200418281, 44.763561358477702 ], [ 15.686866095794253, 44.763561367654525 ], [ 15.686865992239559, 44.763561381670179 ], [ 15.686865890197627, 44.763561400464624 ], [ 15.686865790105422, 44.763561423957391 ], [ 15.686865692391551, 44.763561452047895 ], [ 15.686865597474441, 44.763561484615835 ], [ 15.68686550576054, 44.763561521521744 ], [ 15.686865417642583, 44.763561562607592 ], [ 15.686865333497902, 44.763561607697454 ], [ 15.686865253686822, 44.763561656598213 ], [ 15.686865178551106, 44.763561709100514 ], [ 15.686865108412489, 44.763561764979507 ], [ 15.686865043571325, 44.763561823995914 ], [ 15.686864984305268, 44.763561885897019 ], [ 15.686864930868104, 44.763561950417746 ], [ 15.686864883488662, 44.763562017281821 ], [ 15.686864842369827, 44.763562086202917 ], [ 15.68686480768768, 44.763562156885897 ], [ 15.68686477959073, 44.763562229028089 ], [ 15.686864758199288, 44.76356230232058 ], [ 15.68686474360497, 44.763562376449499 ], [ 15.686864735870255, 44.763562451097414 ], [ 15.686864735028276, 44.763562525944685 ], [ 15.686864741082633, 44.763562600670816 ], [ 15.6868647540074, 44.763562674955793 ], [ 15.686864773747237, 44.763562748481533 ], [ 15.686864800217609, 44.763562820933174 ], [ 15.686864833305165, 44.763562892000486 ], [ 15.686864872868224, 44.763562961379122 ], [ 15.686864918737367, 44.763563028772019 ], [ 15.686864970716176, 44.763563093890568 ], [ 15.686865028582071, 44.763563156455938 ], [ 15.686865092087261, 44.763563216200204 ], [ 15.68686516095981, 44.763563272867543 ], [ 15.68686523490479, 44.763563326215277 ], [ 15.686865313605555, 44.763563376014979 ], [ 15.686865396725105, 44.763563422053409 ], [ 15.686865483907507, 44.763563464133398 ], [ 15.686865574779427, 44.763563502074767 ], [ 15.686865668951739, 44.763563535715029 ], [ 15.686865766021189, 44.763563564910157 ], [ 15.686865865572106, 44.763563589535124 ], [ 15.686865967178191, 44.763563609484471 ], [ 15.686866070404365, 44.763563624672791 ], [ 15.686866174808589, 44.763563635035034 ], [ 15.686866279943789, 44.763563640526819 ], [ 15.686866385359764, 44.763563641124641 ], [ 15.6868664906051, 44.763563636825928 ], [ 15.686866595229125, 44.763563627649106 ], [ 15.686866698783819, 44.763563613633458 ], [ 15.686866800825753, 44.763563594839013 ], [ 15.686866900917957, 44.763563571346239 ], [ 15.68686699863183, 44.763563543255742 ], [ 15.686867093548942, 44.76356351068781 ], [ 15.686867185262841, 44.7635634737819 ], [ 15.686867273380795, 44.763563432696046 ], [ 15.686867357525477, 44.76356338760619 ], [ 15.686867437336558, 44.763563338705424 ], [ 15.686867512472276, 44.76356328620313 ], [ 15.686867582610889, 44.763563230324145 ], [ 15.686867647452056, 44.763563171307737 ], [ 15.686867706718115, 44.763563109406633 ], [ 15.686867760155275, 44.763563044885899 ], [ 15.686867807534716, 44.763562978021831 ], [ 15.68686784865355, 44.763562909100735 ], [ 15.686867883335703, 44.763562838417755 ], [ 15.686867911432651, 44.763562766275562 ], [ 15.686867911432653, 44.763562766275555 ] ], [ [ 15.68688043232552, 44.763535712033651 ], [ 15.686899210427395, 44.76348052909929 ], [ 15.687047703272484, 44.763506002751662 ], [ 15.687028925170608, 44.763561185658673 ], [ 15.68688043232552, 44.763535712033651 ], [ 15.68687104327458, 44.763563303523021 ], [ 15.686861654223637, 44.763590895012406 ], [ 15.687010147068728, 44.763616368664792 ] ], [ [ 15.68688043232552, 44.763535712033651 ], [ 15.687028925170612, 44.763561185699693 ], [ 15.687019536119671, 44.763588777175414 ], [ 15.687022667961594, 44.763589314436544 ], [ 15.68702264657016, 44.763589387729034 ], [ 15.687022631975838, 44.763589461857947 ], [ 15.687022624241123, 44.763589536505869 ], [ 15.687022623399146, 44.763589611353147 ], [ 15.687022629453503, 44.763589686079264 ], [ 15.687022642378267, 44.763589760364241 ], [ 15.687022662118105, 44.763589833889981 ], [ 15.687022688588476, 44.763589906341629 ], [ 15.687022721676032, 44.763589977408927 ], [ 15.687022761239092, 44.76359004678757 ], [ 15.687022807108233, 44.76359011418046 ], [ 15.687022859087042, 44.763590179299008 ], [ 15.687022916952941, 44.763590241864378 ], [ 15.687022980458128, 44.763590301608652 ], [ 15.687023049330678, 44.763590358275984 ], [ 15.687023123275656, 44.763590411623717 ], [ 15.687023201976425, 44.763590461423419 ], [ 15.687023285095973, 44.763590507461835 ], [ 15.68702337227837, 44.763590549541824 ], [ 15.687023463150293, 44.763590587483193 ], [ 15.687023557322606, 44.76359062112347 ], [ 15.687023654392055, 44.763590650318598 ], [ 15.68702375394297, 44.763590674943558 ], [ 15.687023855549057, 44.763590694892905 ], [ 15.687023958775232, 44.763590710081218 ], [ 15.687024063179456, 44.76359072044346 ], [ 15.687024168314657, 44.763590725935245 ], [ 15.687024273730627, 44.763590726533067 ], [ 15.687024378975964, 44.763590722234362 ], [ 15.687024483599989, 44.763590713057539 ], [ 15.687024587154689, 44.763590699041885 ], [ 15.687024689196617, 44.763590680247439 ], [ 15.687024789288824, 44.763590656754673 ], [ 15.687024887002694, 44.763590628664176 ], [ 15.687024981919805, 44.763590596096236 ], [ 15.687025073633707, 44.763590559190334 ], [ 15.687025161751663, 44.763590518104486 ], [ 15.687025245896342, 44.763590473014638 ], [ 15.687025325707422, 44.763590424113865 ], [ 15.68702540084314, 44.763590371611564 ], [ 15.687025470981755, 44.763590315732579 ], [ 15.687025535822922, 44.763590256716178 ], [ 15.687025595088979, 44.763590194815073 ], [ 15.687025648526143, 44.76359013029434 ], [ 15.687025695905582, 44.763590063430257 ], [ 15.68702573702442, 44.763589994509175 ], [ 15.687025771706567, 44.763589923826196 ], [ 15.687025799803521, 44.763589851684017 ], [ 15.687025821194958, 44.763589778391541 ], [ 15.687025835789282, 44.763589704262621 ], [ 15.687025843523992, 44.7635896296147 ], [ 15.687025844365975, 44.763589554767414 ], [ 15.687025838311616, 44.763589480041304 ], [ 15.687025825386849, 44.763589405756321 ], [ 15.687025805647014, 44.763589332230588 ], [ 15.687025779176643, 44.763589259778939 ], [ 15.687025746089086, 44.763589188711634 ], [ 15.687025706526027, 44.763589119332991 ], [ 15.687025660656882, 44.763589051940095 ], [ 15.687025608678073, 44.763588986821539 ], [ 15.687025550812177, 44.763588924256176 ], [ 15.68702548730699, 44.76358886451191 ], [ 15.687025418434441, 44.76358880784457 ], [ 15.687025344489459, 44.763588754496823 ], [ 15.687025265788694, 44.763588704697135 ], [ 15.687025182669144, 44.763588658658705 ], [ 15.687025095486746, 44.763588616578723 ], [ 15.687025004614826, 44.763588578637354 ], [ 15.68702491044251, 44.76358854499707 ], [ 15.687024813373062, 44.763588515801949 ], [ 15.687024713822147, 44.763588491176982 ], [ 15.687024612216058, 44.763588471227628 ], [ 15.687024508989886, 44.763588456039315 ], [ 15.68702440458566, 44.76358844567708 ], [ 15.68702429945046, 44.763588440185295 ], [ 15.687024194034489, 44.763588439587473 ], [ 15.687024088789153, 44.763588443886171 ], [ 15.687023984165128, 44.763588453063001 ], [ 15.687023880610429, 44.763588467078648 ], [ 15.687023778568498, 44.7635884858731 ], [ 15.687023678476296, 44.763588509365874 ], [ 15.687023580762421, 44.763588537456364 ], [ 15.687023485845312, 44.763588570024311 ], [ 15.68702339413141, 44.763588606930206 ], [ 15.687023306013455, 44.763588648016061 ], [ 15.687023221868776, 44.763588693105916 ], [ 15.687023142057694, 44.763588742006689 ], [ 15.687023066921975, 44.763588794508969 ], [ 15.687022996783362, 44.763588850387976 ], [ 15.687022931942193, 44.763588909404376 ], [ 15.687022872676138, 44.763588971305488 ], [ 15.687022819238972, 44.763589035826222 ], [ 15.687022771859535, 44.763589102690297 ], [ 15.687022730740697, 44.763589171611386 ], [ 15.68702269605855, 44.763589242294373 ], [ 15.687022667961594, 44.763589314436544 ] ] ] } }
]
}
