{
"type": "FeatureCollection",
"name": "Object_base",
"crs": { "type": "name", "properties": { "name": "urn:ogc:def:crs:OGC:1.3:CRS84" } },
"features": [
{ "type": "Feature", "properties": { "id": null, "class": "object_base" }, "geometry": { "type": "MultiPolygon", "coordinates": [ [ [ [ 15.68689351960021, 44.763468733384151 ], [ 15.686869536738659, 44.763464619170627 ], [ 15.686755543522031, 44.763799609375816 ], [ 15.686858709961458, 44.763817307311697 ], [ 15.686909411606781, 44.763668311432575 ], [ 15.686830227962146, 44.763654727648564 ], [ 15.68689351960021, 44.763468733384151 ] ] ] ] } },
{ "type": "Feature", "properties": { "id": null, "class": "object_base" }, "geometry": { "type": "MultiPolygon", "coordinates": [ [ [ [ 15.690045041825528, 44.765447795964633 ], [ 15.690141111257333, 44.765506153540905 ], [ 15.690142042250097, 44.765506594872029 ], [ 15.690143043934334, 44.765506836013834 ], [ 15.690144073777706, 44.76550686672725 ], [ 15.69014508805221, 44.765506685708147 ], [ 15.690146043690911, 44.765506300642755 ], [ 15.690146900116602, 44.765505727881269 ], [ 15.690279969582825, 44.765395300314282 ], [ 15.690280639755819, 44.765394626873757 ], [ 15.69028117044436, 44.765393838823208 ], [ 15.690281542487321, 44.765392964616126 ], [ 15.690281742451662, 44.765392035816767 ], [ 15.690281763117436, 44.765391085960509 ], [ 15.690281603738484, 44.765390149343013 ], [ 15.690281270069365, 44.765389259781941 ], [ 15.690280774157589, 44.765388449395921 ], [ 15.69028013390863, 44.765387747444883 ], [ 15.690279372439415, 44.765387179273588 ], [ 15.690183303007609, 44.765328821585754 ], [ 15.690182372014164, 44.765328380253472 ], [ 15.690181370328967, 44.765328139110885 ], [ 15.690180340484488, 44.765328108397142 ], [ 15.690179326208876, 44.765328289416374 ], [ 15.690178370569202, 44.765328674482333 ], [ 15.690177514142805, 44.765329247244772 ], [ 15.690044444676582, 44.765439674923321 ], [ 15.69004377450381, 44.765440348364315 ], [ 15.690043243815603, 44.765441136415298 ], [ 15.690042871773084, 44.765442010622756 ], [ 15.690042671809282, 44.765442939422414 ], [ 15.690042651144127, 44.765443889278863 ], [ 15.690042810523755, 44.765444825896424 ], [ 15.690043144193581, 44.765445715457417 ], [ 15.690043640106063, 44.76544652584321 ], [ 15.690044280355702, 44.765447227793864 ], [ 15.690045041825528, 44.765447795964633 ] ] ] ] } },
{ "type": "Feature", "properties": { "id": null, "class": "object_base" }, "geometry": { "type": "MultiPolygon", "coordinates": [ [ [ [ 15.687025799803518, 44.763589851684017 ], [ 15.687025821194956, 44.763589778391534 ], [ 15.687025835789282, 44.763589704262621 ], [ 15.687025843523992, 44.7635896296147 ], [ 15.687025844365971, 44.763589554767414 ], [ 15.687025838311614, 44.76358948004129 ], [ 15.687025825386847, 44.763589405756314 ], [ 15.687025805647012, 44.76358933223058 ], [ 15.687025779176642, 44.763589259778925 ], [ 15.687025746089084, 44.76358918871162 ], [ 15.687025706526027, 44.763589119332984 ], [ 15.687025660656884, 44.76358905194008 ], [ 15.687025608678075, 44.763588986821532 ], [ 15.68702555081218, 44.763588924256162 ], [ 15.68702548730699, 44.763588864511888 ], [ 15.687025418434443, 44.763588807844556 ], [ 15.687025344489467, 44.763588754496816 ], [ 15.687025265788696, 44.763588704697106 ], [ 15.687025182669149, 44.763588658658691 ], [ 15.687025095486748, 44.763588616578701 ], [ 15.687025004614828, 44.763588578637332 ], [ 15.687024910442515, 44.763588544997063 ], [ 15.687024813373068, 44.763588515801928 ], [ 15.687024713822153, 44.763588491176961 ], [ 15.687024612216064, 44.763588471227607 ], [ 15.687024508989889, 44.763588456039287 ], [ 15.687024404585669, 44.763588445677051 ], [ 15.687024299450465, 44.763588440185266 ], [ 15.687024194034494, 44.763588439587451 ], [ 15.687024088789158, 44.76358844388615 ], [ 15.68702398416513, 44.763588453062972 ], [ 15.687023880610433, 44.763588467078627 ], [ 15.687023778568502, 44.763588485873072 ], [ 15.687023678476294, 44.763588509365839 ], [ 15.687023580762425, 44.763588537456343 ], [ 15.687023485845312, 44.763588570024282 ], [ 15.687023394131414, 44.763588606930192 ], [ 15.687023306013456, 44.763588648016032 ], [ 15.687023221868774, 44.763588693105895 ], [ 15.687023142057694, 44.763588742006661 ], [ 15.687023066921975, 44.763588794508955 ], [ 15.687022996783362, 44.763588850387947 ], [ 15.687022931942192, 44.763588909404355 ], [ 15.687022872676136, 44.76358897130546 ], [ 15.687022819238972, 44.763589035826193 ], [ 15.687022771859532, 44.763589102690268 ], [ 15.687022730740697, 44.763589171611365 ], [ 15.687022696058548, 44.763589242294337 ], [ 15.687022667961596, 44.763589314436537 ], [ 15.687022646570155, 44.76358938772902 ], [ 15.687022631975832, 44.763589461857933 ], [ 15.687022624241122, 44.763589536505854 ], [ 15.687022623399139, 44.763589611353133 ], [ 15.6870226294535, 44.763589686079257 ], [ 15.687022642378267, 44.763589760364233 ], [ 15.6870226621181, 44.763589833889974 ], [ 15.687022688588469, 44.763589906341622 ], [ 15.687022721676028, 44.763589977408927 ], [ 15.687022761239087, 44.76359004678757 ], [ 15.68702280710823, 44.76359011418046 ], [ 15.687022859087035, 44.763590179299015 ], [ 15.687022916952932, 44.763590241864385 ], [ 15.687022980458126, 44.763590301608652 ], [ 15.687023049330671, 44.763590358275984 ], [ 15.687023123275647, 44.763590411623724 ], [ 15.687023201976414, 44.763590461423426 ], [ 15.687023285095966, 44.763590507461849 ], [ 15.687023372278366, 44.763590549541838 ], [ 15.687023463150284, 44.763590587483208 ], [ 15.687023557322599, 44.763590621123477 ], [ 15.687023654392046, 44.763590650318605 ], [ 15.687023753942963, 44.763590674943572 ], [ 15.687023855549052, 44.763590694892919 ], [ 15.687023958775223, 44.763590710081239 ], [ 15.687024063179447, 44.763590720443482 ], [ 15.687024168314647, 44.763590725935259 ], [ 15.68702427373062, 44.763590726533074 ], [ 15.687024378975957, 44.763590722234383 ], [ 15.687024483599982, 44.763590713057553 ], [ 15.68702458715468, 44.763590699041906 ], [ 15.687024689196612, 44.763590680247461 ], [ 15.687024789288817, 44.763590656754694 ], [ 15.687024887002686, 44.76359062866419 ], [ 15.687024981919802, 44.763590596096257 ], [ 15.6870250736337, 44.763590559190348 ], [ 15.687025161751658, 44.7635905181045 ], [ 15.687025245896336, 44.763590473014645 ], [ 15.687025325707417, 44.763590424113879 ], [ 15.687025400843137, 44.763590371611578 ], [ 15.687025470981748, 44.763590315732593 ], [ 15.687025535822919, 44.763590256716185 ], [ 15.687025595088977, 44.763590194815087 ], [ 15.687025648526138, 44.763590130294347 ], [ 15.687025695905579, 44.763590063430279 ], [ 15.687025737024417, 44.763589994509189 ], [ 15.687025771706566, 44.76358992382621 ], [ 15.687025799803518, 44.763589851684017 ] ] ] ] } },
{ "type": "Feature", "properties": { "id": null, "class": "object_base" }, "geometry": { "type": "MultiPolygon", "coordinates": [ [ [ [ 15.686864779590731, 44.763562229028089 ], [ 15.686864758199306, 44.763562302320601 ], [ 15.686864743604994, 44.763562376449556 ], [ 15.686864735870291, 44.763562451097506 ], [ 15.686864735028326, 44.76356252594482 ], [ 15.686864741082692, 44.76356260067098 ], [ 15.686864754007468, 44.763562674955985 ], [ 15.686864773747313, 44.763562748481753 ], [ 15.686864800217696, 44.76356282093343 ], [ 15.686864833305265, 44.763562892000763 ], [ 15.686864872868334, 44.763562961379435 ], [ 15.686864918737486, 44.763563028772353 ], [ 15.686864970716302, 44.763563093890937 ], [ 15.686865028582206, 44.763563156456328 ], [ 15.686865092087404, 44.763563216200616 ], [ 15.686865160959957, 44.763563272867977 ], [ 15.686865234904941, 44.763563326215724 ], [ 15.686865313605715, 44.763563376015448 ], [ 15.686865396725269, 44.763563422053878 ], [ 15.686865483907672, 44.763563464133881 ], [ 15.686865574779597, 44.763563502075257 ], [ 15.686865668951912, 44.763563535715541 ], [ 15.686865766021363, 44.763563564910669 ], [ 15.686865865572278, 44.763563589535636 ], [ 15.686865967178367, 44.763563609484983 ], [ 15.686866070404539, 44.763563624673289 ], [ 15.686866174808761, 44.763563635035531 ], [ 15.68686627994396, 44.763563640527316 ], [ 15.686866385359929, 44.763563641125131 ], [ 15.686866490605263, 44.763563636826412 ], [ 15.686866595229283, 44.763563627649589 ], [ 15.686866698783977, 44.763563613633927 ], [ 15.6868668008259, 44.763563594839454 ], [ 15.686866900918101, 44.763563571346666 ], [ 15.686866998631968, 44.76356354325614 ], [ 15.68686709354907, 44.763563510688194 ], [ 15.68686718526296, 44.763563473782263 ], [ 15.68686727338091, 44.76356343269638 ], [ 15.68686735752558, 44.76356338760651 ], [ 15.68686743733665, 44.763563338705715 ], [ 15.686867512472361, 44.763563286203386 ], [ 15.686867582610967, 44.763563230324365 ], [ 15.68686764745212, 44.763563171307929 ], [ 15.686867706718166, 44.763563109406796 ], [ 15.686867760155318, 44.76356304488602 ], [ 15.686867807534746, 44.763562978021923 ], [ 15.68686784865357, 44.763562909100798 ], [ 15.686867883335706, 44.763562838417791 ], [ 15.68686791143265, 44.763562766275555 ], [ 15.686867932824075, 44.763562692983044 ], [ 15.686867947418385, 44.763562618854088 ], [ 15.686867955153087, 44.763562544206138 ], [ 15.686867955995055, 44.763562469358824 ], [ 15.686867949940686, 44.763562394632665 ], [ 15.68686793701591, 44.76356232034766 ], [ 15.686867917276064, 44.763562246821891 ], [ 15.686867890805681, 44.763562174370207 ], [ 15.686867857718113, 44.763562103302881 ], [ 15.686867818155047, 44.763562033924202 ], [ 15.686867772285895, 44.763561966531284 ], [ 15.686867720307077, 44.763561901412714 ], [ 15.686867662441175, 44.763561838847323 ], [ 15.686867598935974, 44.763561779103021 ], [ 15.68686753006342, 44.763561722435661 ], [ 15.686867456118437, 44.763561669087913 ], [ 15.686867377417663, 44.76356161928819 ], [ 15.686867294298109, 44.763561573249753 ], [ 15.686867207115709, 44.763561531169756 ], [ 15.686867116243784, 44.763561493228373 ], [ 15.686867022071466, 44.76356145958809 ], [ 15.686866925002018, 44.763561430392954 ], [ 15.686866825451103, 44.763561405767987 ], [ 15.686866723845011, 44.76356138581864 ], [ 15.686866620618842, 44.763561370630327 ], [ 15.68686651621462, 44.763561360268092 ], [ 15.686866411079421, 44.763561354776314 ], [ 15.686866305663449, 44.763561354178492 ], [ 15.686866200418114, 44.763561358477212 ], [ 15.686866095794096, 44.763561367654042 ], [ 15.686865992239403, 44.763561381669703 ], [ 15.686865890197478, 44.763561400464162 ], [ 15.686865790105276, 44.763561423956958 ], [ 15.686865692391413, 44.763561452047483 ], [ 15.686865597474311, 44.763561484615437 ], [ 15.686865505760418, 44.763561521521368 ], [ 15.686865417642469, 44.763561562607251 ], [ 15.686865333497801, 44.763561607697127 ], [ 15.686865253686731, 44.763561656597922 ], [ 15.686865178551018, 44.763561709100252 ], [ 15.686865108412414, 44.763561764979272 ], [ 15.686865043571261, 44.763561823995708 ], [ 15.686864984305215, 44.763561885896848 ], [ 15.68686493086806, 44.763561950417618 ], [ 15.686864883488632, 44.763562017281721 ], [ 15.686864842369808, 44.763562086202846 ], [ 15.686864807687671, 44.763562156885861 ], [ 15.686864779590731, 44.763562229028089 ] ] ] ] } }
]
}
